NORAD_CAT_ID,OBJECT_NAME,OBJECT_TYPE,EPOCH,MEAN_MOTION,ECCENTRICITY,INCLINATION,RA_OF_ASC_NODE,ARG_OF_PERICENTER,MEAN_ANOMALY,BSTAR,MEAN_MOTION_DOT,MEAN_MOTION_DDOT,TLE_LINE0,TLE_LINE1,TLE_LINE2,SEMIMAJOR_AXIS,PERIOD,APOGEE,PERIGEE,DECAYED
53541.0,STARLINK-4485,PAYLOAD,2023-12-05 18:18:55,15.08848962,0.0001393,53.2149,177.3607,81.4287,278.6863,0.00031226,4.686e-05,0.0,0 STARLINK-4485,1 53541U 22101Q   23339.76313871  .00004686  00000-0  31226-3 0  9991,2 53541  53.2149 177.3607 0001393  81.4287 278.6863 15.08848962 71639,6917.853,95.437,540.682,538.754,0.0
53541.0,STARLINK-4485,PAYLOAD,2023-12-05 21:29:41,15.08852284,0.0001406,53.215,176.7658,83.4704,276.6449,0.00035344,5.343e-05,0.0,0 STARLINK-4485,1 53541U 22101Q   23339.89561704  .00005343  00000-0  35344-3 0  9991,2 53541  53.2150 176.7658 0001406  83.4704 276.6449 15.08852284 72340,6917.843,95.437,540.68,538.735,0.0
53541.0,STARLINK-4485,PAYLOAD,2023-12-05 23:05:04,15.08853347,0.0001408,53.2149,176.4684,82.6682,277.447,0.00036411,5.514e-05,0.0,0 STARLINK-4485,1 53541U 22101Q   23339.96185659  .00005514  00000-0  36411-3 0  9996,2 53541  53.2149 176.4684 0001408  82.6682 277.4470 15.08853347 72357,6917.84,95.437,540.679,538.731,0.0
53541.0,STARLINK-4485,PAYLOAD,2023-12-06 22:55:51,15.08843808,0.0001448,53.2149,172.0079,82.1064,278.0093,-6.3859e-05,-1.304e-05,0.0,0 STARLINK-4485,1 53541U 22101Q   23340.95545574 -.00001304  00000-0 -63859-4 0  9995,2 53541  53.2149 172.0079 0001448  82.1064 278.0093 15.08843808 71819,6917.869,95.437,540.735,538.732,0.0
53541.0,STARLINK-4485,PAYLOAD,2023-12-07 13:14:19,15.08841995,0.0001433,53.2148,169.3314,82.6969,277.4186,-5.4919e-05,-1.162e-05,0.0,0 STARLINK-4485,1 53541U 22101Q   23341.55161566 -.00001162  00000-0 -54919-4 0  9996,2 53541  53.2148 169.3314 0001433  82.6969 277.4186 15.08841995 72599,6917.874,95.437,540.731,538.748,0.0
53541.0,STARLINK-4485,PAYLOAD,2023-12-08 11:29:43,15.08836429,0.0001381,53.2166,165.1659,85.5055,274.6095,4.2421e-05,3.87e-06,0.0,0 STARLINK-4485,1 53541U 22101Q   23342.47898062  .00000387  00000-0  42421-4 0  9997,2 53541  53.2166 165.1659 0001381  85.5055 274.6095 15.08836429 72049,6917.891,95.438,540.712,538.801,0.0
53541.0,STARLINK-4485,PAYLOAD,2023-12-09 12:55:54,15.08839173,0.0001413,53.2157,160.4102,82.6959,277.4193,1.9003e-05,1.4e-07,0.0,0 STARLINK-4485,1 53541U 22101Q   23343.53882077  .00000014  00000-0  19003-4 0  9991,2 53541  53.2157 160.4102 0001413  82.6959 277.4193 15.08839173 72899,6917.883,95.438,540.725,538.77,0.0
53541.0,STARLINK-4485,PAYLOAD,2023-12-10 19:08:13,15.08840703,0.0001316,53.2158,154.7611,90.7677,269.3466,9.5027e-05,1.225e-05,0.0,0 STARLINK-4485,1 53541U 22101Q   23344.79737943  .00001225  00000-0  95027-4 0  9996,2 53541  53.2158 154.7611 0001316  90.7677 269.3466 15.08840703 72399,6917.878,95.438,540.654,538.833,0.0
53541.0,STARLINK-4485,PAYLOAD,2023-12-11 17:23:37,15.08842738,0.0001322,53.2159,150.5984,90.7799,269.3345,8.406e-05,1.05e-05,0.0,0 STARLINK-4485,1 53541U 22101Q   23345.72473832  .00001050  00000-0  84060-4 0  9995,2 53541  53.2159 150.5984 0001322  90.7799 269.3345 15.08842738 73228,6917.872,95.437,540.652,538.822,0.0
53541.0,STARLINK-4485,PAYLOAD,2023-12-12 17:14:24,15.0884307,0.000128,53.2157,146.1428,92.3818,267.7321,3.5511e-05,2.77e-06,0.0,0 STARLINK-4485,1 53541U 22101Q   23346.71833884  .00000277  00000-0  35511-4 0  9999,2 53541  53.2157 146.1428 0001280  92.3818 267.7321 15.08843070 72688,6917.871,95.437,540.621,538.851,0.0
53541.0,STARLINK-4485,PAYLOAD,2023-12-13 13:54:25,15.08841945,0.0001306,53.2165,142.2743,84.2416,275.8725,5.0411e-05,5.15e-06,0.0,0 STARLINK-4485,1 53541U 22101Q   23347.57945772  .00000515  00000-0  50411-4 0  9995,2 53541  53.2165 142.2743 0001306  84.2416 275.8725 15.08841945 73506,6917.874,95.437,540.643,538.836,0.0
53541.0,STARLINK-4485,PAYLOAD,2023-12-13 17:05:11,15.08842763,0.0001359,53.2161,141.6791,84.0362,276.0785,5.6603e-05,6.13e-06,0.0,0 STARLINK-4485,1 53541U 22101Q   23347.71193682  .00000613  00000-0  56603-4 0  9994,2 53541  53.2161 141.6791 0001359  84.0362 276.0785 15.08842763 73524,6917.872,95.437,540.677,538.797,0.0
53541.0,STARLINK-4485,PAYLOAD,2023-12-14 13:45:12,15.08838348,0.0001398,53.2166,137.8088,91.6647,268.4505,2.385e-05,9.2e-07,0.0,0 STARLINK-4485,1 53541U 22101Q   23348.57306015  .00000092  00000-0  23850-4 0  9994,2 53541  53.2166 137.8088 0001398  91.6647 268.4505 15.08838348 73651,6917.885,95.438,540.718,538.783,0.0
53541.0,STARLINK-4485,PAYLOAD,2023-12-14 15:20:35,15.08838187,0.0001397,53.2168,137.5103,94.7803,265.3349,2.0136e-05,3.3e-07,0.0,0 STARLINK-4485,1 53541U 22101Q   23348.63930007  .00000033  00000-0  20136-4 0  9994,2 53541  53.2168 137.5103 0001397  94.7803 265.3349 15.08838187 72972,6917.886,95.438,540.717,538.785,0.0
53541.0,STARLINK-4485,PAYLOAD,2023-12-15 13:36:00,15.08831453,0.0001421,53.2169,133.3479,96.7902,263.3252,-1.6454e-05,-5.5e-06,0.0,0 STARLINK-4485,1 53541U 22101Q   23349.56666870 -.00000550  00000-0 -16454-4 0  9995,2 53541  53.2169 133.3479 0001421  96.7902 263.3252 15.08831453 73806,6917.907,95.438,540.755,538.788,0.0
53541.0,STARLINK-4485,PAYLOAD,2023-12-15 18:22:09,15.08831464,0.0001431,53.2167,132.4552,98.9797,261.1358,-1.8737e-05,-5.86e-06,0.0,0 STARLINK-4485,1 53541U 22101Q   23349.76538927 -.00000586  00000-0 -18737-4 0  9993,2 53541  53.2167 132.4552 0001431  98.9797 261.1358 15.08831464 73145,6917.906,95.438,540.761,538.782,0.0
53541.0,STARLINK-4485,PAYLOAD,2023-12-16 13:26:46,15.08838118,0.0001355,53.2164,128.888,91.3042,268.8105,0.00012501,1.702e-05,0.0,0 STARLINK-4485,1 53541U 22101Q   23350.56026351  .00001702  00000-0  12501-3 0  9997,2 53541  53.2164 128.8880 0001355  91.3042 268.8105 15.08838118 73956,6917.886,95.438,540.689,538.814,0.0
53541.0,STARLINK-4485,PAYLOAD,2023-12-16 16:37:32,15.08842633,0.0001374,53.2165,128.293,93.2927,266.8222,0.00016201,2.292e-05,0.0,0 STARLINK-4485,1 53541U 22101Q   23350.69274011  .00002292  00000-0  16201-3 0  9995,2 53541  53.2165 128.2930 0001374  93.2927 266.8222 15.08842633 73282,6917.872,95.437,540.688,538.787,0.0
53541.0,STARLINK-4485,PAYLOAD,2023-12-17 14:52:57,15.08836499,0.0001382,53.2162,124.1304,96.4044,263.7106,9.3426e-05,1.199e-05,0.0,0 STARLINK-4485,1 53541U 22101Q   23351.62010835  .00001199  00000-0  93426-4 0  9991,2 53541  53.2162 124.1304 0001382  96.4044 263.7106 15.08836499 74116,6917.891,95.438,540.712,538.8,0.0
53541.0,STARLINK-4485,PAYLOAD,2023-12-17 16:28:20,15.08837676,0.0001405,53.2165,123.8324,91.9969,268.1184,0.00011507,1.544e-05,0.0,0 STARLINK-4485,1 53541U 22101Q   23351.68634738  .00001544  00000-0  11507-3 0  9994,2 53541  53.2165 123.8324 0001405  91.9969 268.1184 15.08837676 73436,6917.887,95.438,540.724,538.781,0.0
53541.0,STARLINK-4485,PAYLOAD,2023-12-18 14:43:44,15.08847038,0.0001673,53.2183,119.6681,69.3602,290.7569,3.8736e-05,3.29e-06,0.0,0 STARLINK-4485,1 53541U 22101Q   23352.61370478  .00000329  00000-0  38736-4 0  9990,2 53541  53.2183 119.6681 0001673  69.3602 290.7569 15.08847038 74268,6917.859,95.437,540.881,538.567,0.0
53541.0,STARLINK-4485,PAYLOAD,2023-12-18 16:19:07,15.08849897,0.000169,53.2173,119.3718,65.57,294.5468,6.0559e-05,6.76e-06,0.0,0 STARLINK-4485,1 53541U 22101Q   23352.67994252  .00000676  00000-0  60559-4 0  9991,2 53541  53.2173 119.3718 0001690  65.5700 294.5468 15.08849897 74277,6917.85,95.437,540.884,538.546,0.0
53541.0,STARLINK-4485,PAYLOAD,2023-12-19 14:34:31,15.08843482,0.0002055,53.2178,115.2059,56.6782,303.4407,7.923e-05,9.73e-06,0.0,0 STARLINK-4485,1 53541U 22101Q   23353.60730572  .00000973  00000-0  79230-4 0  9994,2 53541  53.2178 115.2059 0002055  56.6782 303.4407 15.08843482 74415,6917.87,95.437,541.156,538.313,0.0
53541.0,STARLINK-4485,PAYLOAD,2023-12-20 11:14:32,15.08838746,0.000128,53.2168,111.357,84.2856,275.8282,-3.339e-05,-8.19e-06,0.0,0 STARLINK-4485,1 53541U 22101Q   23354.46843205 -.00000819  00000-0 -33390-4 0  9995,2 53541  53.2168 111.3570 0001280  84.2856 275.8282 15.08838746 73854,6917.884,95.438,540.635,538.864,0.0
53541.0,STARLINK-4485,PAYLOAD,2023-12-20 12:49:55,15.08837948,0.0001342,53.2177,111.0572,78.0991,282.0151,-3.159e-05,-7.91e-06,0.0,0 STARLINK-4485,1 53541U 22101Q   23354.53467252 -.00000791  00000-0 -31590-4 0  9996,2 53541  53.2177 111.0572 0001342  78.0991 282.0151 15.08837948 74559,6917.887,95.438,540.68,538.823,0.0
53541.0,STARLINK-4485,PAYLOAD,2023-12-21 14:16:05,15.08846865,0.0001415,53.2179,106.289,103.2731,256.8419,6.6957e-05,7.78e-06,0.0,0 STARLINK-4485,1 53541U 22101Q   23355.59450333  .00000778  00000-0  66957-4 0  9993,2 53541  53.2179 106.2890 0001415 103.2731 256.8419 15.08846865 74716,6917.859,95.437,540.703,538.746,0.0
53541.0,STARLINK-4485,PAYLOAD,2023-12-22 10:56:06,15.08836718,0.0001419,53.2177,102.4211,115.4322,244.6818,7.2485e-05,8.66e-06,0.0,0 STARLINK-4485,1 53541U 22101Q   23356.45563110  .00000866  00000-0  72485-4 0  9998,2 53541  53.2177 102.4211 0001419 115.4322 244.6818 15.08836718 74156,6917.89,95.438,540.737,538.774,0.0
53541.0,STARLINK-4485,PAYLOAD,2023-12-22 12:31:29,15.08838452,0.0001211,53.2174,102.1248,103.3825,256.7302,8.3265e-05,1.038e-05,0.0,0 STARLINK-4485,1 53541U 22101Q   23356.52187088  .00001038  00000-0  83265-4 0  9992,2 53541  53.2174 102.1248 0001211 103.3825 256.7302 15.08838452 74850,6917.885,95.438,540.588,538.912,0.0
53541.0,STARLINK-4485,PAYLOAD,2023-12-23 12:22:16,15.08843839,0.000122,53.2175,97.6669,67.8382,292.274,-1.5645e-05,-5.37e-06,0.0,0 STARLINK-4485,1 53541U 22101Q   23357.51547361 -.00000537  00000-0 -15645-4 0  9998,2 53541  53.2175  97.6669 0001220  67.8382 292.2740 15.08843839 74315,6917.869,95.437,540.578,538.89,0.0
53541.0,STARLINK-4485,PAYLOAD,2023-12-23 13:57:39,15.08847829,0.0001193,53.2168,97.3697,80.0714,280.0413,8.619e-06,-1.51e-06,0.0,0 STARLINK-4485,1 53541U 22101Q   23357.58171008 -.00000151  00000-0  86190-5 0  9991,2 53541  53.2168  97.3697 0001193  80.0714 280.0413 15.08847829 75013,6917.856,95.437,540.547,538.896,0.0
